{"type": "FeatureCollection", "features": [ {"type": "Feature", "properties": {"norad_id": 35195, "name": "FENGYUN 1C DEB", "group": "fengyun-1c-debris", "lat": -79.85189136657628, "lon": -166.47146827059456, "alt_km": 787.2506373640217, "timestamp": "2025-12-07T16:44:04.198968+00:00", "meta": {"OBJECT_NAME": "FENGYUN 1C DEB", "OBJECT_ID": "1999-025DPB", "EPOCH": "2025-12-03T12:33:41.840352", "MEAN_MOTION": 14.55899933, "ECCENTRICITY": 0.01040396, "INCLINATION": 98.9842, "RA_OF_ASC_NODE": 71.1499, "ARG_OF_PERICENTER": 96.2611, "MEAN_ANOMALY": 265.0447, "EPHEMERIS_TYPE": 0, "CLASSIFICATION_TYPE": "U", "NORAD_CAT_ID": 35195, "ELEMENT_SET_NO": 999, "REV_AT_EPOCH": 90792, "BSTAR": 0.0012811423, "MEAN_MOTION_DOT": 6e-05, "MEAN_MOTION_DDOT": 0}, "tle": {"line1": "1 35195U 99025DPB 25337.52340093  .00006000  00000+0  12811-2 0  9994", "line2": "2 35195  98.9842  71.1499 0104039  96.2611 265.0447 14.55899933907929"}}, "geometry": {"type": "Point", "coordinates": [-166.47146827059456, -79.85189136657628]}}, {"type": "Feature", "properties": {"norad_id": 35196, "name": "FENGYUN 1C DEB", "group": "fengyun-1c-debris", "lat": -33.470661808264175, "lon": 2.7420092283358564, "alt_km": 693.4717745026019, "timestamp": "2025-12-07T16:44:04.198979+00:00", "meta": {"OBJECT_NAME": "FENGYUN 1C DEB", "OBJECT_ID": "1999-025DPC", "EPOCH": "2025-12-06T19:45:04.498272", "MEAN_MOTION": 14.19745995, "ECCENTRICITY": 0.02148086, "INCLINATION": 98.5362, "RA_OF_ASC_NODE": 356.1994, "ARG_OF_PERICENTER": 355.5206, "MEAN_ANOMALY": 185.6683, "EPHEMERIS_TYPE": 0, "CLASSIFICATION_TYPE": "U", "NORAD_CAT_ID": 35196, "ELEMENT_SET_NO": 999, "REV_AT_EPOCH": 89050, "BSTAR": 0.00161437, "MEAN_MOTION_DOT": 4.262e-05, "MEAN_MOTION_DDOT": 0}, "tle": {"line1": "1 35196U 99025DPC 25340.82296873  .00004262  00000+0  16144-2 0  9999", "line2": "2 35196  98.5362 356.1994 0214808 355.5206 185.6683 14.19745995890508"}}, "geometry": {"type": "Point", "coordinates": [2.7420092283358564, -33.470661808264175]}}, {"type": "Feature", "properties": {"norad_id": 35200, "name": "FENGYUN 1C DEB", "group": "fengyun-1c-debris", "lat": 21.8124600924103, "lon": -43.871972852746985, "alt_km": 928.8747550940516, "timestamp": "2025-12-07T16:44:04.198989+00:00", "meta": {"OBJECT_NAME": "FENGYUN 1C DEB", "OBJECT_ID": "1999-025DPG", "EPOCH": "2025-12-05T17:08:36.752928", "MEAN_MOTION": 13.41952848, "ECCENTRICITY": 0.03532987, "INCLINATION": 98.8697, "RA_OF_ASC_NODE": 317.9651, "ARG_OF_PERICENTER": 77.9252, "MEAN_ANOMALY": 92.6148, "EPHEMERIS_TYPE": 0, "CLASSIFICATION_TYPE": "U", "NORAD_CAT_ID": 35200, "ELEMENT_SET_NO": 999, "REV_AT_EPOCH": 65809, "BSTAR": 0.00063085378, "MEAN_MOTION_DOT": 4.78e-06, "MEAN_MOTION_DDOT": 0}, "tle": {"line1": "1 35200U 99025DPG 25339.71431427  .00000478  00000+0  63085-3 0  9999", "line2": "2 35200  98.8697 317.9651 0353298  77.9252  92.6148 13.41952848658096"}}, "geometry": {"type": "Point", "coordinates": [-43.871972852746985, 21.8124600924103]}}, {"type": "Feature", "properties": {"norad_id": 35201, "name": "FENGYUN 1C DEB", "group": "fengyun-1c-debris", "lat": 35.863586015374025, "lon": 177.24815327296932, "alt_km": 855.5487982182067, "timestamp": "2025-12-07T16:44:04.198999+00:00", "meta": {"OBJECT_NAME": "FENGYUN 1C DEB", "OBJECT_ID": "1999-025DPH", "EPOCH": "2025-12-06T07:48:17.642016", "MEAN_MOTION": 14.11048703, "ECCENTRICITY": 0.00057709, "INCLINATION": 98.7079, "RA_OF_ASC_NODE": 349.557, "ARG_OF_PERICENTER": 270.7578, "MEAN_ANOMALY": 106.9618, "EPHEMERIS_TYPE": 0, "CLASSIFICATION_TYPE": "U", "NORAD_CAT_ID": 35201, "ELEMENT_SET_NO": 999, "REV_AT_EPOCH": 86929, "BSTAR": 0.00021062979, "MEAN_MOTION_DOT": 3.36e-06, "MEAN_MOTION_DDOT": 0}, "tle": {"line1": "1 35201U 99025DPH 25340.32520419  .00000336  00000+0  21063-3 0  9992", "line2": "2 35201  98.7079 349.5570 0005770 270.7578 106.9618 14.11048703869295"}}, "geometry": {"type": "Point", "coordinates": [177.24815327296932, 35.863586015374025]}}, {"type": "Feature", "properties": {"norad_id": 35202, "name": "FENGYUN 1C DEB", "group": "fengyun-1c-debris", "lat": 29.606079945357333, "lon": 20.977043151300613, "alt_km": 850.4566294342603, "timestamp": "2025-12-07T16:44:04.199010+00:00", "meta": {"OBJECT_NAME": "FENGYUN 1C DEB", "OBJECT_ID": "1999-025DPJ", "EPOCH": "2025-11-30T10:05:49.025184", "MEAN_MOTION": 13.34730307, "ECCENTRICITY": 0.03739167, "INCLINATION": 100.0942, "RA_OF_ASC_NODE": 19.5924, "ARG_OF_PERICENTER": 37.6604, "MEAN_ANOMALY": 325.0083, "EPHEMERIS_TYPE": 0, "CLASSIFICATION_TYPE": "U", "NORAD_CAT_ID": 35202, "ELEMENT_SET_NO": 999, "REV_AT_EPOCH": 56812, "BSTAR": 0.00081043758, "MEAN_MOTION_DOT": 5.61e-06, "MEAN_MOTION_DDOT": 0}, "tle": {"line1": "1 35202U 99025DPJ 25334.42070631  .00000561  00000+0  81044-3 0  9998", "line2": "2 35202 100.0942  19.5924 0373916  37.6604 325.0083 13.34730307568129"}}, "geometry": {"type": "Point", "coordinates": [20.977043151300613, 29.606079945357333]}}, {"type": "Feature", "properties": {"norad_id": 35203, "name": "FENGYUN 1C DEB", "group": "fengyun-1c-debris", "lat": -77.91771660484561, "lon": 38.67846511892178, "alt_km": 1211.538439295121, "timestamp": "2025-12-07T16:44:04.199020+00:00", "meta": {"OBJECT_NAME": "FENGYUN 1C DEB", "OBJECT_ID": "1999-025DPK", "EPOCH": "2025-12-06T15:52:42.549312", "MEAN_MOTION": 13.26401309, "ECCENTRICITY": 0.05114841, "INCLINATION": 102.0742, "RA_OF_ASC_NODE": 306.6411, "ARG_OF_PERICENTER": 172.6276, "MEAN_ANOMALY": 188.2735, "EPHEMERIS_TYPE": 0, "CLASSIFICATION_TYPE": "U", "NORAD_CAT_ID": 35203, "ELEMENT_SET_NO": 999, "REV_AT_EPOCH": 59570, "BSTAR": 0.0025421523, "MEAN_MOTION_DOT": 2.232e-05, "MEAN_MOTION_DDOT": 0}, "tle": {"line1": "1 35203U 99025DPK 25340.66160358  .00002232  00000+0  25422-2 0  9992", "line2": "2 35203 102.0742 306.6411 0511484 172.6276 188.2735 13.26401309595705"}}, "geometry": {"type": "Point", "coordinates": [38.67846511892178, -77.91771660484561]}}, {"type": "Feature", "properties": {"norad_id": 35204, "name": "FENGYUN 1C DEB", "group": "fengyun-1c-debris", "lat": 80.96792305482174, "lon": 76.04703404152215, "alt_km": 732.9895980355759, "timestamp": "2025-12-07T16:44:04.199030+00:00", "meta": {"OBJECT_NAME": "FENGYUN 1C DEB", "OBJECT_ID": "1999-025DPL", "EPOCH": "2025-12-06T12:15:29.868768", "MEAN_MOTION": 14.48628518, "ECCENTRICITY": 0.00393604, "INCLINATION": 99.0062, "RA_OF_ASC_NODE": 168.6356, "ARG_OF_PERICENTER": 342.0386, "MEAN_ANOMALY": 43.9019, "EPHEMERIS_TYPE": 0, "CLASSIFICATION_TYPE": "U", "NORAD_CAT_ID": 35204, "ELEMENT_SET_NO": 999, "REV_AT_EPOCH": 90840, "BSTAR": 0.0040363586, "MEAN_MOTION_DOT": 0.00015319, "MEAN_MOTION_DDOT": 0}, "tle": {"line1": "1 35204U 99025DPL 25340.51076237  .00015319  00000+0  40364-2 0  9991", "line2": "2 35204  99.0062 168.6356 0039360 342.0386  43.9019 14.48628518908408"}}, "geometry": {"type": "Point", "coordinates": [76.04703404152215, 80.96792305482174]}}, {"type": "Feature", "properties": {"norad_id": 35207, "name": "FENGYUN 1C DEB", "group": "fengyun-1c-debris", "lat": -60.66712198752458, "lon": -115.978043412536, "alt_km": 681.8112798500815, "timestamp": "2025-12-07T16:44:04.199063+00:00", "meta": {"OBJECT_NAME": "FENGYUN 1C DEB", "OBJECT_ID": "1999-025DPP", "EPOCH": "2025-11-29T17:50:26.900160", "MEAN_MOTION": 14.55080945, "ECCENTRICITY": 0.0054743, "INCLINATION": 98.6905, "RA_OF_ASC_NODE": 71.5483, "ARG_OF_PERICENTER": 294.9923, "MEAN_ANOMALY": 64.5593, "EPHEMERIS_TYPE": 0, "CLASSIFICATION_TYPE": "U", "NORAD_CAT_ID": 35207, "ELEMENT_SET_NO": 999, "REV_AT_EPOCH": 64715, "BSTAR": 0.0019605249, "MEAN_MOTION_DOT": 8.586e-05, "MEAN_MOTION_DDOT": 0}, "tle": {"line1": "1 35207U 99025DPP 25333.74336690  .00008586  00000+0  19605-2 0  9995", "line2": "2 35207  98.6905  71.5483 0054743 294.9923  64.5593 14.55080945647151"}}, "geometry": {"type": "Point", "coordinates": [-115.978043412536, -60.66712198752458]}}, {"type": "Feature", "properties": {"norad_id": 35208, "name": "FENGYUN 1C DEB", "group": "fengyun-1c-debris", "lat": 18.641337745453537, "lon": -175.9337030085528, "alt_km": 823.0064473891553, "timestamp": "2025-12-07T16:44:04.199075+00:00", "meta": {"OBJECT_NAME": "FENGYUN 1C DEB", "OBJECT_ID": "1999-025DPQ", "EPOCH": "2025-11-27T19:11:53.318688", "MEAN_MOTION": 13.99599013, "ECCENTRICITY": 0.01006373, "INCLINATION": 98.9056, "RA_OF_ASC_NODE": 351.4058, "ARG_OF_PERICENTER": 197.6504, "MEAN_ANOMALY": 162.1154, "EPHEMERIS_TYPE": 0, "CLASSIFICATION_TYPE": "U", "NORAD_CAT_ID": 35208, "ELEMENT_SET_NO": 999, "REV_AT_EPOCH": 90354, "BSTAR": 0.00091687477, "MEAN_MOTION_DOT": 1.356e-05, "MEAN_MOTION_DDOT": 0}, "tle": {"line1": "1 35208U 99025DPQ 25331.79992267  .00001356  00000+0  91687-3 0  9996", "line2": "2 35208  98.9056 351.4058 0100637 197.6504 162.1154 13.99599013903542"}}, "geometry": {"type": "Point", "coordinates": [-175.9337030085528, 18.641337745453537]}}, {"type": "Feature", "properties": {"norad_id": 35210, "name": "FENGYUN 1C DEB", "group": "fengyun-1c-debris", "lat": -24.50015430417316, "lon": 161.04898393992573, "alt_km": 762.2959088438984, "timestamp": "2025-12-07T16:44:04.199085+00:00", "meta": {"OBJECT_NAME": "FENGYUN 1C DEB", "OBJECT_ID": "1999-025DPS", "EPOCH": "2025-12-05T23:50:18.341376", "MEAN_MOTION": 14.33492757, "ECCENTRICITY": 0.00493395, "INCLINATION": 99.0965, "RA_OF_ASC_NODE": 343.4463, "ARG_OF_PERICENTER": 258.927, "MEAN_ANOMALY": 157.4301, "EPHEMERIS_TYPE": 0, "CLASSIFICATION_TYPE": "U", "NORAD_CAT_ID": 35210, "ELEMENT_SET_NO": 999, "REV_AT_EPOCH": 90026, "BSTAR": 0.004026418, "MEAN_MOTION_DOT": 0.0001125, "MEAN_MOTION_DDOT": 0}, "tle": {"line1": "1 35210U 99025DPS 25339.99326784  .00011250  00000+0  40264-2 0  9992", "line2": "2 35210  99.0965 343.4463 0049339 258.9270 157.4301 14.33492757900262"}}, "geometry": {"type": "Point", "coordinates": [161.04898393992573, -24.50015430417316]}}]}